QIANFAN-238             
1 69867U 26155V   26199.58896908  .00000176  00000+0  66372-4 0  9996
2 69867  89.0064  60.5594 0030460 212.1741 147.7596 14.26785967  1864
STARLINK-37886          
1 69943U 26157A   26199.58335648  .00021830  00000+0  11392-3 0  9993
2 69943  53.1615 278.8531 0001216  66.4427 245.3608 15.80862042  2700
STARLINK-37937          
1 69944U 26157B   26199.58335648 -.00039129  00000+0 -19548-3 0  9997
2 69944  53.1593 278.8342 0001457  60.9881 259.9057 15.80884840  2705
STARLINK-37903          
1 69945U 26157C   26199.58335648 -.00001089  00000+0 -19781-5 0  9993
2 69945  53.1612 278.8247 0001233  73.3305 252.0773 15.80873690  2703
STARLINK-37905          
1 69946U 26157D   26199.58335648  .00009423  00000+0  51223-4 0  9998
2 69946  53.1591 278.7846 0000611  80.7668 263.9163 15.80872890  2702
STARLINK-37904          
1 69947U 26157E   26199.58335648 -.00010824  00000+0 -51350-4 0  9999
2 69947  53.1592 278.7768 0000806  68.6894 279.8972 15.80881253  2706
STARLINK-37891          
1 69948U 26157F   26199.58335648 -.00057471  00000+0 -28904-3 0  9997
2 69948  53.1593 278.7677 0000819  68.5103 284.3509 15.80912868  2707
STARLINK-37923          
1 69949U 26157G   26199.58335648 -.00053639  00000+0 -26964-3 0  9994
2 69949  53.1592 278.7321 0000815  71.7721 298.2196 15.80895000  2705
STARLINK-37895          
1 69950U 26157H   26199.58335648 -.00021466  00000+0 -10549-3 0  9991
2 69950  53.1593 278.7165 0001048  69.1946 308.2629 15.80872187  2707
STARLINK-37841          
1 69951U 26157J   26199.58335648 -.00037478  00000+0 -18705-3 0  9994
2 69951  53.1594 278.6928 0001318  74.4943 314.3810 15.80885089  2706
STARLINK-37899          
1 69952U 26157K   26199.58335648  .00001423  00000+0  10753-4 0  9990
2 69952  53.1594 278.6697 0000602  82.3981 317.6464 15.80856332  2705
STARLINK-37900          
1 69953U 26157L   26199.58335648  .00005485  00000+0  31340-4 0  9998
2 69953  53.1595 278.6616 0001599  77.1283 326.7536 15.80856636  2709
STARLINK-37882          
1 69954U 26157M   26199.58335648 -.00151855  00000+0 -77641-3 0  9997
2 69954  53.1595 278.6392 0001265  67.8773 346.7682 15.80955410  2705
STARLINK-37928          
1 69955U 26157N   26199.58335648 -.00039632  00000+0 -19803-3 0  9992
2 69955  53.1595 278.6379 0001086  74.9055 340.4566 15.80888644  2700
STARLINK-37824          
1 69956U 26157P   26199.58335648 -.00121438  00000+0 -62088-3 0  9992
2 69956  53.1594 278.6348 0001328 102.2766 314.5207 15.80855133  2700
STARLINK-37919          
1 69957U 26157Q   26199.58335648 -.00067625  00000+0 -34144-3 0  9992
2 69957  53.1594 278.6327 0000706  74.2568 343.5116 15.80893800  2709
STARLINK-37964          
1 69958U 26157R   26199.58335648 -.00169900  00000+0 -87302-3 0  9996
2 69958  53.1595 278.6195 0000344  99.4396 324.7966 15.80905398  2700
STARLINK-37907          
1 69959U 26157S   26199.58335648 -.00996896  00000+0 -54757-2 0  9996
2 69959  53.1594 278.5995 0000993  57.1180  16.8101 15.81595461  2706
STARLINK-37901          
1 69960U 26157T   26199.58335648 -.01290728  00000+0 -70909-2 0  9997
2 69960  53.1594 278.5860 0000657  89.7931 350.5775 15.81857841  2709
STARLINK-37910          
1 69961U 26157U   26199.58335648 -.01819113  00000+0 -97831-2 0  9996
2 69961  53.1595 278.5677 0000732  63.3278  25.7200 15.82360779  2707
STARLINK-37925          
1 69962U 26157V   26199.58335648 -.01871674  00000+0 -10083-1 0  9990
2 69962  53.1595 278.5639 0000876  51.3542  39.6355 15.82409354  2704
STARLINK-37931          
1 69963U 26157W   26199.58335648 -.01806233  00000+0 -97227-2 0  9996
2 69963  53.1595 278.5568 0000649  69.7175  24.6127 15.82321471  2703
STARLINK-37914          
1 69964U 26157X   26199.58335648 -.02478742  00000+0 -13091-1 0  9994
2 69964  53.1592 278.5237 0001254  69.4790  40.5711 15.83216215  2703
STARLINK-37840          
1 69965U 26157Y   26199.58335648 -.02158605  00000+0 -10801-1 0  9994
2 69965  53.1590 278.4947 0001164  54.2129  69.7781 15.84425172  2702
STARLINK-37894          
1 69966U 26157Z   26199.58335648 -.02166241  00000+0 -11434-1 0  9993
2 69966  53.1590 278.5037 0001440  58.9535  60.7174 15.83328749  2701
STARLINK-37875          
1 69967U 26157AA  26199.58335648 -.02122312  00000+0 -10961-1 0  9999
2 69967  53.1589 278.4842 0001185  48.3666  80.6590 15.83707227  2702
STARLINK-36218          
1 69968U 26157AB  26199.58335648 -.02198268  00000+0 -11000-1 0  9998
2 69968  53.1587 278.4604 0001254  57.1615  83.1193 15.84490702  2352
STARLINK-37921          
1 69969U 26157AC  26199.58335648 -.02204628  00000+0 -10755-1 0  9993
2 69969  53.1586 278.4263 0001329  62.1074  94.6541 15.85021105  2702
STARLINK-37896          
1 69970U 26157AD  26199.58335648 -.02216881  00000+0 -10846-1 0  9990
2 69970  53.1584 278.4237 0001232  68.3079  89.6886 15.84985796  2709
