OBJECT_NAME,OBJECT_ID,EPOCH,MEAN_MOTION,ECCENTRICITY,INCLINATION,RA_OF_ASC_NODE,ARG_OF_PERICENTER,MEAN_ANOMALY,EPHEMERIS_TYPE,CLASSIFICATION_TYPE,NORAD_CAT_ID,ELEMENT_SET_NO,REV_AT_EPOCH,BSTAR,MEAN_MOTION_DOT,MEAN_MOTION_DDOT
QIANFAN-238,2026-155V,2026-07-18T14:08:06.928512,14.26785967,.00304602,89.0064,60.5594,212.1741,147.7596,0,U,69867,999,186,.66372441E-4,.176E-5,0
STARLINK-37886,2026-157A,2026-07-18T14:00:01.999872,15.80862042,.00012162,53.1615,278.8531,66.4427,245.3608,0,U,69943,999,270,.11391917E-3,.2183E-3,0
STARLINK-37937,2026-157B,2026-07-18T14:00:01.999872,15.80884840,.00014577,53.1593,278.8342,60.9881,259.9057,0,U,69944,999,270,-.19548232E-3,-.39129E-3,0
STARLINK-37903,2026-157C,2026-07-18T14:00:01.999872,15.80873690,.00012333,53.1612,278.8247,73.3305,252.0773,0,U,69945,999,270,-.1978132E-5,-.1089E-4,0
STARLINK-37905,2026-157D,2026-07-18T14:00:01.999872,15.80872890,.00006117,53.1591,278.7846,80.7668,263.9163,0,U,69946,999,270,.51223072E-4,.9423E-4,0
STARLINK-37904,2026-157E,2026-07-18T14:00:01.999872,15.80881253,.00008066,53.1592,278.7768,68.6894,279.8972,0,U,69947,999,270,-.51350036E-4,-.10824E-3,0
STARLINK-37891,2026-157F,2026-07-18T14:00:01.999872,15.80912868,.00008197,53.1593,278.7677,68.5103,284.3509,0,U,69948,999,270,-.28904406E-3,-.57471E-3,0
STARLINK-37923,2026-157G,2026-07-18T14:00:01.999872,15.80895000,.00008158,53.1592,278.7321,71.7721,298.2196,0,U,69949,999,270,-.26963942E-3,-.53639E-3,0
STARLINK-37895,2026-157H,2026-07-18T14:00:01.999872,15.80872187,.00010488,53.1593,278.7165,69.1946,308.2629,0,U,69950,999,270,-.10548989E-3,-.21466E-3,0
STARLINK-37841,2026-157J,2026-07-18T14:00:01.999872,15.80885089,.00013183,53.1594,278.6928,74.4943,314.3810,0,U,69951,999,270,-.18704633E-3,-.37478E-3,0
STARLINK-37899,2026-157K,2026-07-18T14:00:01.999872,15.80856332,.00006029,53.1594,278.6697,82.3981,317.6464,0,U,69952,999,270,.10753213E-4,.1423E-4,0
STARLINK-37900,2026-157L,2026-07-18T14:00:01.999872,15.80856636,.00015998,53.1595,278.6616,77.1283,326.7536,0,U,69953,999,270,.31340084E-4,.5485E-4,0
STARLINK-37882,2026-157M,2026-07-18T14:00:01.999872,15.80955410,.00012658,53.1595,278.6392,67.8773,346.7682,0,U,69954,999,270,-.77640964E-3,-.151855E-2,0
STARLINK-37928,2026-157N,2026-07-18T14:00:01.999872,15.80888644,.00010869,53.1595,278.6379,74.9055,340.4566,0,U,69955,999,270,-.19802716E-3,-.39632E-3,0
STARLINK-37824,2026-157P,2026-07-18T14:00:01.999872,15.80855133,.00013285,53.1594,278.6348,102.2766,314.5207,0,U,69956,999,270,-.62087619E-3,-.121438E-2,0
STARLINK-37919,2026-157Q,2026-07-18T14:00:01.999872,15.80893800,.00007064,53.1594,278.6327,74.2568,343.5116,0,U,69957,999,270,-.34144498E-3,-.67625E-3,0
STARLINK-37964,2026-157R,2026-07-18T14:00:01.999872,15.80905398,.00003447,53.1595,278.6195,99.4396,324.7966,0,U,69958,999,270,-.8730223E-3,-.1699E-2,0
STARLINK-37907,2026-157S,2026-07-18T14:00:01.999872,15.81595461,.00009936,53.1594,278.5995,57.1180,16.8101,0,U,69959,999,270,-.54757113E-2,-.996896E-2,0
STARLINK-37901,2026-157T,2026-07-18T14:00:01.999872,15.81857841,.00006575,53.1594,278.5860,89.7931,350.5775,0,U,69960,999,270,-.70908974E-2,-.1290728E-1,0
STARLINK-37910,2026-157U,2026-07-18T14:00:01.999872,15.82360779,.00007328,53.1595,278.5677,63.3278,25.7200,0,U,69961,999,270,-.97831344E-2,-.1819113E-1,0
STARLINK-37925,2026-157V,2026-07-18T14:00:01.999872,15.82409354,.00008762,53.1595,278.5639,51.3542,39.6355,0,U,69962,999,270,-.10082924E-1,-.1871674E-1,0
STARLINK-37931,2026-157W,2026-07-18T14:00:01.999872,15.82321471,.00006496,53.1595,278.5568,69.7175,24.6127,0,U,69963,999,270,-.97227291E-2,-.1806233E-1,0
STARLINK-37914,2026-157X,2026-07-18T14:00:01.999872,15.83216215,.00012549,53.1592,278.5237,69.4790,40.5711,0,U,69964,999,270,-.13090955E-1,-.2478742E-1,0
STARLINK-37840,2026-157Y,2026-07-18T14:00:01.999872,15.84425172,.00011647,53.1590,278.4947,54.2129,69.7781,0,U,69965,999,270,-.10800902E-1,-.2158605E-1,0
STARLINK-37894,2026-157Z,2026-07-18T14:00:01.999872,15.83328749,.00014401,53.1590,278.5037,58.9535,60.7174,0,U,69966,999,270,-.11433931E-1,-.2166241E-1,0
STARLINK-37875,2026-157AA,2026-07-18T14:00:01.999872,15.83707227,.00011857,53.1589,278.4842,48.3666,80.6590,0,U,69967,999,270,-.10961484E-1,-.2122312E-1,0
STARLINK-36218,2026-157AB,2026-07-18T14:00:01.999872,15.84490702,.00012548,53.1587,278.4604,57.1615,83.1193,0,U,69968,999,235,-.11000288E-1,-.2198268E-1,0
STARLINK-37921,2026-157AC,2026-07-18T14:00:01.999872,15.85021105,.00013292,53.1586,278.4263,62.1074,94.6541,0,U,69969,999,270,-.10755464E-1,-.2204628E-1,0
STARLINK-37896,2026-157AD,2026-07-18T14:00:01.999872,15.84985796,.00012324,53.1584,278.4237,68.3079,89.6886,0,U,69970,999,270,-.10845965E-1,-.2216881E-1,0
